IRIDIUM 126             
1 42809U 17039G   24179.55614302  .00000104  00000+0  29941-4 0  9995
2 42809  86.3968 294.3645 0001964  97.3631 262.7788 14.34217082366813
IRIDIUM 124             
1 42810U 17039H   24179.53704646  .00000546  00000+0  15620-3 0  9994
2 42810  86.4499 231.1029 0002676  94.0821 266.0686 14.43276222371312
IRIDIUM 128             
1 42811U 17039J   24178.91896643  .00000073  00000+0  19172-4 0  9997
2 42811  86.3973 326.1614 0002288  98.3416 261.8039 14.34218144366745
IRIDIUM 121             
1 42812U 17039K   24178.73795069  .00000135  00000+0  41229-4 0  9995
2 42812  86.3966 294.7290 0002307  94.8082 265.3377 14.34217909366562
IRIDIUM 133             
1 42955U 17061A   24178.95067934  .00000043  00000+0  81367-5 0  9991
2 42955  86.3975 326.2477 0002063  94.5916 265.5516 14.34217827351548
IRIDIUM 100             
1 42956U 17061B   24179.43271593  .00000432  00000+0  14731-3 0  9995
2 42956  86.3972 325.9813 0001969  95.2041 264.9379 14.34217637351636
IRIDIUM 122             
1 42957U 17061C   24179.47076786  .00000333  00000+0  11166-3 0  9996
2 42957  86.3973 325.9639 0002123  96.0079 264.1359 14.34220746351621
IRIDIUM 129             
1 42958U 17061D   24179.42637230  .00000092  00000+0  25682-4 0  9990
2 42958  86.3974 326.0422 0002020  97.8943 262.2482 14.34218423351636
